{
  "type": "FeatureCollection",
  "features": [
    {
      "type": "Feature",
      "properties": {
        "norad_id": 66568,
        "name": "STARLINK-35803",
        "group": "last-30-days",
        "lat": -23.68430223088452,
        "lon": -90.0633798718738,
        "alt_km": 400.1584110233798,
        "timestamp": "2025-12-22T20:43:44.563311+00:00",
        "meta_object_name": "STARLINK-35803",
        "meta_object_id": "2025-268M",
        "meta_epoch": "2025-12-22T14:00:01.999872",
        "meta_mean_motion": 15.56032835,
        "meta_eccentricity": 0.00015423,
        "meta_inclination": 43.0007,
        "meta_ra_of_asc_node": 63.51,
        "meta_arg_of_pericenter": 265.4207,
        "meta_mean_anomaly": 178.1601,
        "meta_ephemeris_type": 0,
        "meta_classification_type": "U",
        "meta_norad_cat_id": 66568,
        "meta_element_set_no": 999,
        "meta_rev_at_epoch": 609,
        "meta_bstar": 0.0053300621,
        "meta_mean_motion_dot": 0.00400783,
        "meta_mean_motion_ddot": 0,
        "tle_line1": "1 66568U 25268M   25356.58335648  .00400783  00000+0  53301-2 0  9992",
        "tle_line2": "2 66568  43.0007  63.5100 0001542 265.4207 178.1601 15.56032835  6097"
      },
      "geometry": {
        "type": "Point",
        "coordinates": [
          -90.0633798718738,
          -23.68430223088452
        ]
      }
    },
    {
      "type": "Feature",
      "properties": {
        "norad_id": 66569,
        "name": "STARLINK-35835",
        "group": "last-30-days",
        "lat": -36.62147535520166,
        "lon": -65.30402606777011,
        "alt_km": 400.373026477645,
        "timestamp": "2025-12-22T20:43:44.563321+00:00",
        "meta_object_name": "STARLINK-35835",
        "meta_object_id": "2025-268N",
        "meta_epoch": "2025-12-22T14:00:01.999872",
        "meta_mean_motion": 15.5637321,
        "meta_eccentricity": 0.00015626,
        "meta_inclination": 43.0007,
        "meta_ra_of_asc_node": 63.4501,
        "meta_arg_of_pericenter": 276.8872,
        "meta_mean_anomaly": 191.4197,
        "meta_ephemeris_type": 0,
        "meta_classification_type": "U",
        "meta_norad_cat_id": 66569,
        "meta_element_set_no": 999,
        "meta_rev_at_epoch": 609,
        "meta_bstar": 0.0003023512,
        "meta_mean_motion_dot": 0.00021594,
        "meta_mean_motion_ddot": 0,
        "tle_line1": "1 66569U 25268N   25356.58335648  .00021594  00000+0  30235-3 0  9994",
        "tle_line2": "2 66569  43.0007  63.4501 0001562 276.8872 191.4197 15.56373210  6091"
      },
      "geometry": {
        "type": "Point",
        "coordinates": [
          -65.30402606777011,
          -36.62147535520166
        ]
      }
    },
    {
      "type": "Feature",
      "properties": {
        "norad_id": 66570,
        "name": "STARLINK-35834",
        "group": "last-30-days",
        "lat": -27.87330920673511,
        "lon": -83.58155988957297,
        "alt_km": 420.4917426310667,
        "timestamp": "2025-12-22T20:43:44.563332+00:00",
        "meta_object_name": "STARLINK-35834",
        "meta_object_id": "2025-268P",
        "meta_epoch": "2025-12-22T14:00:01.999872",
        "meta_mean_motion": 15.50644432,
        "meta_eccentricity": 0.00014112,
        "meta_inclination": 43,
        "meta_ra_of_asc_node": 63.4773,
        "meta_arg_of_pericenter": 285.4866,
        "meta_mean_anomaly": 171.4908,
        "meta_ephemeris_type": 0,
        "meta_classification_type": "U",
        "meta_norad_cat_id": 66570,
        "meta_element_set_no": 999,
        "meta_rev_at_epoch": 609,
        "meta_bstar": -0.038532989,
        "meta_mean_motion_dot": -0.02021572,
        "meta_mean_motion_ddot": 0,
        "tle_line1": "1 66570U 25268P   25356.58335648 -.02021572  00000+0 -38533-1 0  9993",
        "tle_line2": "2 66570  43.0000  63.4773 0001411 285.4866 171.4908 15.50644432  6098"
      },
      "geometry": {
        "type": "Point",
        "coordinates": [
          -83.58155988957297,
          -27.87330920673511
        ]
      }
    },
    {
      "type": "Feature",
      "properties": {
        "norad_id": 66571,
        "name": "STARLINK-35836",
        "group": "last-30-days",
        "lat": -31.289580653535218,
        "lon": -77.46921253682528,
        "alt_km": 418.28019708188185,
        "timestamp": "2025-12-22T20:43:44.563343+00:00",
        "meta_object_name": "STARLINK-35836",
        "meta_object_id": "2025-268Q",
        "meta_epoch": "2025-12-22T14:00:01.999872",
        "meta_mean_motion": 15.51485128,
        "meta_eccentricity": 0.0001334,
        "meta_inclination": 43.0003,
        "meta_ra_of_asc_node": 63.4638,
        "meta_arg_of_pericenter": 290.6759,
        "meta_mean_anomaly": 171.7871,
        "meta_ephemeris_type": 0,
        "meta_classification_type": "U",
        "meta_norad_cat_id": 66571,
        "meta_element_set_no": 999,
        "meta_rev_at_epoch": 610,
        "meta_bstar": -0.037522254,
        "meta_mean_motion_dot": -0.02028297,
        "meta_mean_motion_ddot": 0,
        "tle_line1": "1 66571U 25268Q   25356.58335648 -.02028297  00000+0 -37522-1 0  9992",
        "tle_line2": "2 66571  43.0003  63.4638 0001334 290.6759 171.7871 15.51485128  6105"
      },
      "geometry": {
        "type": "Point",
        "coordinates": [
          -77.46921253682528,
          -31.289580653535218
        ]
      }
    },
    {
      "type": "Feature",
      "properties": {
        "norad_id": 66572,
        "name": "STARLINK-35870",
        "group": "last-30-days",
        "lat": -35.259858530594244,
        "lon": -68.84806177507694,
        "alt_km": 414.0296795087379,
        "timestamp": "2025-12-22T20:43:44.563353+00:00",
        "meta_object_name": "STARLINK-35870",
        "meta_object_id": "2025-268R",
        "meta_epoch": "2025-12-22T14:00:01.999872",
        "meta_mean_motion": 15.52941663,
        "meta_eccentricity": 0.00013403,
        "meta_inclination": 43.0005,
        "meta_ra_of_asc_node": 63.4483,
        "meta_arg_of_pericenter": 284.3755,
        "meta_mean_anomaly": 184.8626,
        "meta_ephemeris_type": 0,
        "meta_classification_type": "U",
        "meta_norad_cat_id": 66572,
        "meta_element_set_no": 999,
        "meta_rev_at_epoch": 615,
        "meta_bstar": -0.035805526,
        "meta_mean_motion_dot": -0.02039492,
        "meta_mean_motion_ddot": 0,
        "tle_line1": "1 66572U 25268R   25356.58335648 -.02039492  00000+0 -35806-1 0  9995",
        "tle_line2": "2 66572  43.0005  63.4483 0001340 284.3755 184.8626 15.52941663  6159"
      },
      "geometry": {
        "type": "Point",
        "coordinates": [
          -68.84806177507694,
          -35.259858530594244
        ]
      }
    },
    {
      "type": "Feature",
      "properties": {
        "norad_id": 66573,
        "name": "STARLINK-35650",
        "group": "last-30-days",
        "lat": -37.30455375422858,
        "lon": -63.36053222825423,
        "alt_km": 411.4538014559175,
        "timestamp": "2025-12-22T20:43:44.563366+00:00",
        "meta_object_name": "STARLINK-35650",
        "meta_object_id": "2025-268S",
        "meta_epoch": "2025-12-22T14:00:01.999872",
        "meta_mean_motion": 15.53589096,
        "meta_eccentricity": 0.00016835,
        "meta_inclination": 43.0005,
        "meta_ra_of_asc_node": 63.4372,
        "meta_arg_of_pericenter": 253.3629,
        "meta_mean_anomaly": 220.0603,
        "meta_ephemeris_type": 0,
        "meta_classification_type": "U",
        "meta_norad_cat_id": 66573,
        "meta_element_set_no": 999,
        "meta_rev_at_epoch": 609,
        "meta_bstar": -0.032860389,
        "meta_mean_motion_dot": -0.01895278,
        "meta_mean_motion_ddot": 0,
        "tle_line1": "1 66573U 25268S   25356.58335648 -.01895278  00000+0 -32860-1 0  9994",
        "tle_line2": "2 66573  43.0005  63.4372 0001683 253.3629 220.0603 15.53589096  6093"
      },
      "geometry": {
        "type": "Point",
        "coordinates": [
          -63.36053222825423,
          -37.30455375422858
        ]
      }
    },
    {
      "type": "Feature",
      "properties": {
        "norad_id": 66574,
        "name": "STARLINK-35812",
        "group": "last-30-days",
        "lat": -38.835530145580925,
        "lon": -58.46212641808837,
        "alt_km": 409.3066557234788,
        "timestamp": "2025-12-22T20:43:44.563376+00:00",
        "meta_object_name": "STARLINK-35812",
        "meta_object_id": "2025-268T",
        "meta_epoch": "2025-12-22T14:00:01.999872",
        "meta_mean_motion": 15.54617128,
        "meta_eccentricity": 0.00011513,
        "meta_inclination": 43.0006,
        "meta_ra_of_asc_node": 63.4288,
        "meta_arg_of_pericenter": 283.1213,
        "meta_mean_anomaly": 193.4717,
        "meta_ephemeris_type": 0,
        "meta_classification_type": "U",
        "meta_norad_cat_id": 66574,
        "meta_element_set_no": 999,
        "meta_rev_at_epoch": 609,
        "meta_bstar": -0.033911372,
        "meta_mean_motion_dot": -0.02052781,
        "meta_mean_motion_ddot": 0,
        "tle_line1": "1 66574U 25268T   25356.58335648 -.02052781  00000+0 -33911-1 0  9998",
        "tle_line2": "2 66574  43.0006  63.4288 0001151 283.1213 193.4717 15.54617128  6099"
      },
      "geometry": {
        "type": "Point",
        "coordinates": [
          -58.46212641808837,
          -38.835530145580925
        ]
      }
    }
  ]
}